[{"OBJECT_NAME":"STARLINK-5916","OBJECT_ID":"2023-042C","EPOCH":"2026-03-09T07:13:47.626752","MEAN_MOTION":15.02535484,"ECCENTRICITY":0.00012199,"INCLINATION":43.004,"RA_OF_ASC_NODE":58.0864,"ARG_OF_PERICENTER":268.8318,"MEAN_ANOMALY":91.2385,"EPHEMERIS_TYPE":0,"CLASSIFICATION_TYPE":"U","NORAD_CAT_ID":55988,"ELEMENT_SET_NO":999,"REV_AT_EPOCH":16285,"BSTAR":3.2637134e-5,"MEAN_MOTION_DOT":2.37e-6,"MEAN_MOTION_DDOT":0},{"OBJECT_NAME":"FENGYUN 1C DEB","OBJECT_ID":"1999-025DFA","EPOCH":"2026-03-08T02:39:49.474656","MEAN_MOTION":14.042091,"ECCENTRICITY":0.04530669,"INCLINATION":99.0254,"RA_OF_ASC_NODE":189.3543,"ARG_OF_PERICENTER":213.8894,"MEAN_ANOMALY":143.2554,"EPHEMERIS_TYPE":0,"CLASSIFICATION_TYPE":"U","NORAD_CAT_ID":33665,"ELEMENT_SET_NO":999,"REV_AT_EPOCH":93789,"BSTAR":0.0025670733,"MEAN_MOTION_DOT":0.00010255,"MEAN_MOTION_DDOT":0}]
